{"type": "FeatureCollection", "features": [{"type": "Feature", "properties": {"norad_id": 28054, "name": "DMSP 5D-3 F16 (USA 172)", "group": "weather", "lat": -34.072826140377806, "lon": -174.69697766069575, "alt_km": 849.8868586035796, "timestamp": "2025-12-19T22:41:52.021083+00:00", "meta": {"OBJECT_NAME": "DMSP 5D-3 F16 (USA 172)", "OBJECT_ID": "2003-048A", "EPOCH": "2025-12-19T17:01:41.836800", "MEAN_MOTION": 14.14426593, "ECCENTRICITY": 0.0006309, "INCLINATION": 99.0039, "RA_OF_ASC_NODE": 11.2212, "ARG_OF_PERICENTER": 298.7253, "MEAN_ANOMALY": 153.6082, "EPHEMERIS_TYPE": 0, "CLASSIFICATION_TYPE": "U", "NORAD_CAT_ID": 28054, "ELEMENT_SET_NO": 999, "REV_AT_EPOCH": 14411, "BSTAR": 6.8263e-05, "MEAN_MOTION_DOT": 8.5e-07, "MEAN_MOTION_DDOT": 0}, "tle": {"line1": "1 28054U 03048A   25353.70951200  .00000085  00000+0  68263-4 0  9997", "line2": "2 28054  99.0039  11.2212 0006309 298.7253 153.6082 14.14426593144119"}}, "geometry": {"type": "Point", "coordinates": [-174.69697766069575, -34.072826140377806]}}, {"type": "Feature", "properties": {"norad_id": 28912, "name": "METEOSAT-9 (MSG-2)", "group": "weather", "lat": 7.662946082612217, "lon": 114.35499596339848, "alt_km": 36036.00244072334, "timestamp": "2025-12-19T22:41:52.021132+00:00", "meta": {"OBJECT_NAME": "METEOSAT-9 (MSG-2)", "OBJECT_ID": "2005-049B", "EPOCH": "2025-12-18T20:21:29.033280", "MEAN_MOTION": 1.00264866, "ECCENTRICITY": 0.0082047, "INCLINATION": 8.9417, "RA_OF_ASC_NODE": 55.9014, "ARG_OF_PERICENTER": 282.314, "MEAN_ANOMALY": 99.6592, "EPHEMERIS_TYPE": 0, "CLASSIFICATION_TYPE": "U", "NORAD_CAT_ID": 28912, "ELEMENT_SET_NO": 999, "REV_AT_EPOCH": 519, "BSTAR": 0, "MEAN_MOTION_DOT": 1.45e-06, "MEAN_MOTION_DDOT": 0}, "tle": {"line1": "1 28912U 05049B   25352.84825270  .00000145  00000+0  00000+0 0  9991", "line2": "2 28912   8.9417  55.9014 0082047 282.3140  99.6592  1.00264866  5196"}}, "geometry": {"type": "Point", "coordinates": [114.35499596339848, 7.662946082612217]}}, {"type": "Feature", "properties": {"norad_id": 29522, "name": "DMSP 5D-3 F17 (USA 191)", "group": "weather", "lat": 12.222407860660624, "lon": -178.9058114803615, "alt_km": 838.0659131150587, "timestamp": "2025-12-19T22:41:52.021149+00:00", "meta": {"OBJECT_NAME": "DMSP 5D-3 F17 (USA 191)", "OBJECT_ID": "2006-050A", "EPOCH": "2025-12-19T18:30:49.564800", "MEAN_MOTION": 14.1492252, "ECCENTRICITY": 0.0009697, "INCLINATION": 98.739, "RA_OF_ASC_NODE": 359.0141, "ARG_OF_PERICENTER": 203.6273, "MEAN_ANOMALY": 156.4456, "EPHEMERIS_TYPE": 0, "CLASSIFICATION_TYPE": "U", "NORAD_CAT_ID": 29522, "ELEMENT_SET_NO": 999, "REV_AT_EPOCH": 98704, "BSTAR": 8.7524e-05, "MEAN_MOTION_DOT": 1.26e-06, "MEAN_MOTION_DDOT": 0}, "tle": {"line1": "1 29522U 06050A   25353.77140700  .00000126  00000+0  87524-4 0  9993", "line2": "2 29522  98.7390 359.0141 0009697 203.6273 156.4456 14.14922520987044"}}, "geometry": {"type": "Point", "coordinates": [-178.9058114803615, 12.222407860660624]}}, {"type": "Feature", "properties": {"norad_id": 32958, "name": "FENGYUN 3A", "group": "weather", "lat": 0.5531988285450307, "lon": -66.76352790032315, "alt_km": 828.2266335389486, "timestamp": "2025-12-19T22:41:52.021183+00:00", "meta": {"OBJECT_NAME": "FENGYUN 3A", "OBJECT_ID": "2008-026A", "EPOCH": "2025-12-19T14:14:12.505056", "MEAN_MOTION": 14.19516596, "ECCENTRICITY": 0.0007684, "INCLINATION": 98.6705, "RA_OF_ASC_NODE": 292.9758, "ARG_OF_PERICENTER": 288.4847, "MEAN_ANOMALY": 71.5494, "EPHEMERIS_TYPE": 0, "CLASSIFICATION_TYPE": "U", "NORAD_CAT_ID": 32958, "ELEMENT_SET_NO": 999, "REV_AT_EPOCH": 90992, "BSTAR": 5.2028e-05, "MEAN_MOTION_DOT": 6.6e-07, "MEAN_MOTION_DDOT": 0}, "tle": {"line1": "1 32958U 08026A   25353.59320029  .00000066  00000+0  52028-4 0  9993", "line2": "2 32958  98.6705 292.9758 0007684 288.4847  71.5494 14.19516596909928"}}, "geometry": {"type": "Point", "coordinates": [-66.76352790032315, 0.5531988285450307]}}, {"type": "Feature", "properties": {"norad_id": 35491, "name": "GOES 14", "group": "weather", "lat": -0.9483867302896353, "lon": -45.058769865029035, "alt_km": 35833.916953861306, "timestamp": "2025-12-19T22:41:52.021199+00:00", "meta": {"OBJECT_NAME": "GOES 14", "OBJECT_ID": "2009-033A", "EPOCH": "2025-12-19T11:12:46.867104", "MEAN_MOTION": 1.00096833, "ECCENTRICITY": 5.13e-05, "INCLINATION": 1.2203, "RA_OF_ASC_NODE": 85.3391, "ARG_OF_PERICENTER": 179.3818, "MEAN_ANOMALY": 237.7883, "EPHEMERIS_TYPE": 0, "CLASSIFICATION_TYPE": "U", "NORAD_CAT_ID": 35491, "ELEMENT_SET_NO": 999, "REV_AT_EPOCH": 479, "BSTAR": 0, "MEAN_MOTION_DOT": 1.8e-07, "MEAN_MOTION_DDOT": 0}, "tle": {"line1": "1 35491U 09033A   25353.46720911  .00000018  00000+0  00000+0 0  9992", "line2": "2 35491   1.2203  85.3391 0000513 179.3818 237.7883  1.00096833  4795"}}, "geometry": {"type": "Point", "coordinates": [-45.058769865029035, -0.9483867302896353]}}, {"type": "Feature", "properties": {"norad_id": 35951, "name": "DMSP 5D-3 F18 (USA 210)", "group": "weather", "lat": 30.657410904077484, "lon": -35.00902059602988, "alt_km": 832.9872425690028, "timestamp": "2025-12-19T22:41:52.021212+00:00", "meta": {"OBJECT_NAME": "DMSP 5D-3 F18 (USA 210)", "OBJECT_ID": "2009-057A", "EPOCH": "2025-12-19T17:27:34.946784", "MEAN_MOTION": 14.14773589, "ECCENTRICITY": 0.0011902, "INCLINATION": 98.8841, "RA_OF_ASC_NODE": 330.0935, "ARG_OF_PERICENTER": 44.365, "MEAN_ANOMALY": 315.8474, "EPHEMERIS_TYPE": 0, "CLASSIFICATION_TYPE": "U", "NORAD_CAT_ID": 35951, "ELEMENT_SET_NO": 999, "REV_AT_EPOCH": 83421, "BSTAR": 0.00012902, "MEAN_MOTION_DOT": 2.04e-06, "MEAN_MOTION_DDOT": 0}, "tle": {"line1": "1 35951U 09057A   25353.72748781  .00000204  00000+0  12902-3 0  9998", "line2": "2 35951  98.8841 330.0935 0011902  44.3650 315.8474 14.14773589834210"}}, "geometry": {"type": "Point", "coordinates": [-35.00902059602988, 30.657410904077484]}}, {"type": "Feature", "properties": {"norad_id": 36411, "name": "EWS-G2 (GOES 15)", "group": "weather", "lat": 0.6012019716385182, "lon": 130.562245690887, "alt_km": 35801.99876500876, "timestamp": "2025-12-19T22:41:52.021225+00:00", "meta": {"OBJECT_NAME": "EWS-G2 (GOES 15)", "OBJECT_ID": "2010-008A", "EPOCH": "2025-12-19T16:33:11.351808", "MEAN_MOTION": 1.00270885, "ECCENTRICITY": 0.0005461, "INCLINATION": 0.83, "RA_OF_ASC_NODE": 86.0824, "ARG_OF_PERICENTER": 177.3617, "MEAN_ANOMALY": 134.7553, "EPHEMERIS_TYPE": 0, "CLASSIFICATION_TYPE": "U", "NORAD_CAT_ID": 36411, "ELEMENT_SET_NO": 999, "REV_AT_EPOCH": 5783, "BSTAR": 0, "MEAN_MOTION_DOT": 6.2e-07, "MEAN_MOTION_DDOT": 0}, "tle": {"line1": "1 36411U 10008A   25353.68971472  .00000062  00000+0  00000+0 0  9992", "line2": "2 36411   0.8300  86.0824 0005461 177.3617 134.7553  1.00270885 57836"}}, "geometry": {"type": "Point", "coordinates": [130.562245690887, 0.6012019716385182]}}, {"type": "Feature", "properties": {"norad_id": 36744, "name": "COMS 1", "group": "weather", "lat": 3.7844156951972647, "lon": -162.51138300436156, "alt_km": 35785.288729810716, "timestamp": "2025-12-19T22:41:52.021239+00:00", "meta": {"OBJECT_NAME": "COMS 1", "OBJECT_ID": "2010-032A", "EPOCH": "2025-12-19T17:17:45.777408", "MEAN_MOTION": 1.00272646, "ECCENTRICITY": 7.08e-05, "INCLINATION": 4.3564, "RA_OF_ASC_NODE": 77.921, "ARG_OF_PERICENTER": 207.8228, "MEAN_ANOMALY": 190.4357, "EPHEMERIS_TYPE": 0, "CLASSIFICATION_TYPE": "U", "NORAD_CAT_ID": 36744, "ELEMENT_SET_NO": 999, "REV_AT_EPOCH": 4929, "BSTAR": 0, "MEAN_MOTION_DOT": -3.23e-06, "MEAN_MOTION_DDOT": 0}, "tle": {"line1": "1 36744U 10032A   25353.72066872 -.00000323  00000+0  00000+0 0  9993", "line2": "2 36744   4.3564  77.9210 0000708 207.8228 190.4357  1.00272646 49299"}}, "geometry": {"type": "Point", "coordinates": [-162.51138300436156, 3.7844156951972647]}}, {"type": "Feature", "properties": {"norad_id": 37214, "name": "FENGYUN 3B", "group": "weather", "lat": -3.674771215792069, "lon": 34.55603800943851, "alt_km": 831.5667743577396, "timestamp": "2025-12-19T22:41:52.021252+00:00", "meta": {"OBJECT_NAME": "FENGYUN 3B", "OBJECT_ID": "2010-059A", "EPOCH": "2025-12-19T18:15:09.488736", "MEAN_MOTION": 14.14792078, "ECCENTRICITY": 0.0021719, "INCLINATION": 98.9902, "RA_OF_ASC_NODE": 33.787, "ARG_OF_PERICENTER": 337.7217, "MEAN_ANOMALY": 155.7744, "EPHEMERIS_TYPE": 0, "CLASSIFICATION_TYPE": "U", "NORAD_CAT_ID": 37214, "ELEMENT_SET_NO": 999, "REV_AT_EPOCH": 78205, "BSTAR": 7.7657e-05, "MEAN_MOTION_DOT": 1.04e-06, "MEAN_MOTION_DDOT": 0}, "tle": {"line1": "1 37214U 10059A   25353.76052649  .00000104  00000+0  77657-4 0  9999", "line2": "2 37214  98.9902  33.7870 0021719 337.7217 155.7744 14.14792078782052"}}, "geometry": {"type": "Point", "coordinates": [34.55603800943851, -3.674771215792069]}}, {"type": "Feature", "properties": {"norad_id": 37849, "name": "SUOMI NPP", "group": "weather", "lat": -40.155402700178996, "lon": -61.28690847617685, "alt_km": 834.8900732219035, "timestamp": "2025-12-19T22:41:52.021263+00:00", "meta": {"OBJECT_NAME": "SUOMI NPP", "OBJECT_ID": "2011-061A", "EPOCH": "2025-12-17T23:31:21.474624", "MEAN_MOTION": 14.19515682, "ECCENTRICITY": 0.00023932, "INCLINATION": 98.7779, "RA_OF_ASC_NODE": 289.2746, "ARG_OF_PERICENTER": 111.1248, "MEAN_ANOMALY": 249.0184, "EPHEMERIS_TYPE": 0, "CLASSIFICATION_TYPE": "U", "NORAD_CAT_ID": 37849, "ELEMENT_SET_NO": 999, "REV_AT_EPOCH": 73273, "BSTAR": 4.8615036e-05, "MEAN_MOTION_DOT": 5.8e-07, "MEAN_MOTION_DDOT": 0}, "tle": {"line1": "1 37849U 11061A   25351.98010966  .00000058  00000+0  48615-4 0  9995", "line2": "2 37849  98.7779 289.2746 0002393 111.1248 249.0184 14.19515682732735"}}, "geometry": {"type": "Point", "coordinates": [-61.28690847617685, -40.155402700178996]}}]}